0 COSMOS 1375 DEB
1 16383U 82055X   13282.40468872  .00000318  00000-0  42912-3 0   732
2 16383 065.8312 194.7811 0041279 118.5043 353.1566 13.72851676398582
0 COSMOS 1375 DEB
1 16383U 82055X   13287.15012600  .00000313  00000-0  42412-3 0   755
2 16383 065.8307 183.0994 0041181 115.6241 046.9331 13.72853753399237
0 COSMOS 1375 DEB
1 16383U 82055X   13289.17304639  .00000329  00000-0  44101-3 0   760
2 16383 065.8303 178.1196 0041151 114.4077 324.9872 13.72855950399514
0 COSMOS 1375 DEB
1 16383U 82055X   13291.50078106  .00000315  00000-0  42615-3 0   771
2 16383 065.8299 172.3895 0041196 112.9707 309.6071 13.72858371399838
0 COSMOS 1375 DEB
1 16383U 82055X   13293.84479296  .00000369  00000-0  48367-3 0   785
2 16383 065.8298 166.6191 0041147 111.5769 014.6444 13.72860537400153
0 COSMOS 1375 DEB
1 16383U 82055X   13296.16764130  .00000205  00000-0  30792-3 0   790
2 16383 065.8296 160.9007 0041156 110.1341 335.1540 13.72861284400478
